{
  "type": "FeatureCollection",
  "features": [
    {
      "type": "Feature",
      "properties": {
        "norad_id": 66689,
        "name": "TRANSPORTER-15 Z",
        "group": "last-30-days",
        "lat": -45.24646114435554,
        "lon": 74.8850698749233,
        "alt_km": 513.2697914242608,
        "timestamp": "2025-12-21T16:47:53.448938+00:00",
        "meta_object_name": "TRANSPORTER-15 Z",
        "meta_object_id": "2025-276Z",
        "meta_epoch": "2025-12-21T05:55:52.013856",
        "meta_mean_motion": 15.18560021,
        "meta_eccentricity": 0.0003325,
        "meta_inclination": 97.4422,
        "meta_ra_of_asc_node": 66.8629,
        "meta_arg_of_pericenter": 280.5478,
        "meta_mean_anomaly": 79.5382,
        "meta_ephemeris_type": 0,
        "meta_classification_type": "U",
        "meta_norad_cat_id": 66689,
        "meta_element_set_no": 999,
        "meta_rev_at_epoch": 341,
        "meta_bstar": 0.031229,
        "meta_mean_motion_dot": 0.00690544,
        "meta_mean_motion_ddot": 0,
        "tle_line1": "1 66689U 25276Z   25355.24712979  .00690544  00000+0  31229-1 0  9993",
        "tle_line2": "2 66689  97.4422  66.8629 0003325 280.5478  79.5382 15.18560021  3410"
      },
      "geometry": {
        "type": "Point",
        "coordinates": [
          74.8850698749233,
          -45.24646114435554
        ]
      }
    },
    {
      "type": "Feature",
      "properties": {
        "norad_id": 66690,
        "name": "TRANSPORTER-15 AA",
        "group": "last-30-days",
        "lat": -67.1844700246662,
        "lon": 85.38850215318132,
        "alt_km": 520.0747881536226,
        "timestamp": "2025-12-21T16:47:53.448950+00:00",
        "meta_object_name": "TRANSPORTER-15 AA",
        "meta_object_id": "2025-276AA",
        "meta_epoch": "2025-12-21T12:20:59.972064",
        "meta_mean_motion": 15.17043176,
        "meta_eccentricity": 0.0003532,
        "meta_inclination": 97.4399,
        "meta_ra_of_asc_node": 67.1093,
        "meta_arg_of_pericenter": 256.4121,
        "meta_mean_anomaly": 103.6719,
        "meta_ephemeris_type": 0,
        "meta_classification_type": "U",
        "meta_norad_cat_id": 66690,
        "meta_element_set_no": 999,
        "meta_rev_at_epoch": 345,
        "meta_bstar": 0.00041394,
        "meta_mean_motion_dot": 8.127e-05,
        "meta_mean_motion_ddot": 0,
        "tle_line1": "1 66690U 25276AA  25355.51458301  .00008127  00000+0  41394-3 0  9997",
        "tle_line2": "2 66690  97.4399  67.1093 0003532 256.4121 103.6719 15.17043176  3454"
      },
      "geometry": {
        "type": "Point",
        "coordinates": [
          85.38850215318132,
          -67.1844700246662
        ]
      }
    },
    {
      "type": "Feature",
      "properties": {
        "norad_id": 66691,
        "name": "TRANSPORTER-15 AB",
        "group": "last-30-days",
        "lat": -57.647464542628356,
        "lon": 79.21193561093621,
        "alt_km": 519.4852268255781,
        "timestamp": "2025-12-21T16:47:53.448961+00:00",
        "meta_object_name": "TRANSPORTER-15 AB",
        "meta_object_id": "2025-276AB",
        "meta_epoch": "2025-12-21T10:43:26.556096",
        "meta_mean_motion": 15.1726404,
        "meta_eccentricity": 0.0003683,
        "meta_inclination": 97.4425,
        "meta_ra_of_asc_node": 67.054,
        "meta_arg_of_pericenter": 255.9731,
        "meta_mean_anomaly": 104.1093,
        "meta_ephemeris_type": 0,
        "meta_classification_type": "U",
        "meta_norad_cat_id": 66691,
        "meta_element_set_no": 999,
        "meta_rev_at_epoch": 344,
        "meta_bstar": 0.00043214,
        "meta_mean_motion_dot": 8.542e-05,
        "meta_mean_motion_ddot": 0,
        "tle_line1": "1 66691U 25276AB  25355.44683514  .00008542  00000+0  43214-3 0  9990",
        "tle_line2": "2 66691  97.4425  67.0540 0003683 255.9731 104.1093 15.17264040  3444"
      },
      "geometry": {
        "type": "Point",
        "coordinates": [
          79.21193561093621,
          -57.647464542628356
        ]
      }
    },
    {
      "type": "Feature",
      "properties": {
        "norad_id": 66692,
        "name": "TRANSPORTER-15 AC",
        "group": "last-30-days",
        "lat": -41.047848335651665,
        "lon": 73.85075337857309,
        "alt_km": 521.2344619256919,
        "timestamp": "2025-12-21T16:47:53.448973+00:00",
        "meta_object_name": "TRANSPORTER-15 AC",
        "meta_object_id": "2025-276AC",
        "meta_epoch": "2025-12-21T12:13:57.989280",
        "meta_mean_motion": 15.17429936,
        "meta_eccentricity": 0.0002441,
        "meta_inclination": 97.4441,
        "meta_ra_of_asc_node": 67.1264,
        "meta_arg_of_pericenter": 194.7593,
        "meta_mean_anomaly": 165.357,
        "meta_ephemeris_type": 0,
        "meta_classification_type": "U",
        "meta_norad_cat_id": 66692,
        "meta_element_set_no": 999,
        "meta_rev_at_epoch": 345,
        "meta_bstar": -0.0018739,
        "meta_mean_motion_dot": -0.00037331,
        "meta_mean_motion_ddot": 0,
        "tle_line1": "1 66692U 25276AC  25355.50969895 -.00037331  00000+0 -18739-2 0  9990",
        "tle_line2": "2 66692  97.4441  67.1264 0002441 194.7593 165.3570 15.17429936  3451"
      },
      "geometry": {
        "type": "Point",
        "coordinates": [
          73.85075337857309,
          -41.047848335651665
        ]
      }
    },
    {
      "type": "Feature",
      "properties": {
        "norad_id": 66693,
        "name": "TRANSPORTER-15 AD",
        "group": "last-30-days",
        "lat": -42.668626903657426,
        "lon": 74.21079269836223,
        "alt_km": 518.0786726454726,
        "timestamp": "2025-12-21T16:47:53.448983+00:00",
        "meta_object_name": "TRANSPORTER-15 AD",
        "meta_object_id": "2025-276AD",
        "meta_epoch": "2025-12-21T10:39:28.123200",
        "meta_mean_motion": 15.17559883,
        "meta_eccentricity": 0.0003263,
        "meta_inclination": 97.438,
        "meta_ra_of_asc_node": 67.0431,
        "meta_arg_of_pericenter": 281.5978,
        "meta_mean_anomaly": 78.4889,
        "meta_ephemeris_type": 0,
        "meta_classification_type": "U",
        "meta_norad_cat_id": 66693,
        "meta_element_set_no": 999,
        "meta_rev_at_epoch": 344,
        "meta_bstar": 0.00057543,
        "meta_mean_motion_dot": 0.00011497,
        "meta_mean_motion_ddot": 0,
        "tle_line1": "1 66693U 25276AD  25355.44407550  .00011497  00000+0  57543-3 0  9999",
        "tle_line2": "2 66693  97.4380  67.0431 0003263 281.5978  78.4889 15.17559883  3445"
      },
      "geometry": {
        "type": "Point",
        "coordinates": [
          74.21079269836223,
          -42.668626903657426
        ]
      }
    },
    {
      "type": "Feature",
      "properties": {
        "norad_id": 66694,
        "name": "YAM-9",
        "group": "last-30-days",
        "lat": -32.85373227234544,
        "lon": 72.15469396104926,
        "alt_km": 518.9323364792717,
        "timestamp": "2025-12-21T16:47:53.448994+00:00",
        "meta_object_name": "YAM-9",
        "meta_object_id": "2025-276AE",
        "meta_epoch": "2025-12-21T10:36:50.353344",
        "meta_mean_motion": 15.17538727,
        "meta_eccentricity": 0.0001524,
        "meta_inclination": 97.4419,
        "meta_ra_of_asc_node": 67.0593,
        "meta_arg_of_pericenter": 268.4852,
        "meta_mean_anomaly": 91.6207,
        "meta_ephemeris_type": 0,
        "meta_classification_type": "U",
        "meta_norad_cat_id": 66694,
        "meta_element_set_no": 999,
        "meta_rev_at_epoch": 344,
        "meta_bstar": 0.00064473,
        "meta_mean_motion_dot": 0.00012883,
        "meta_mean_motion_ddot": 0,
        "tle_line1": "1 66694U 25276AE  25355.44224946  .00012883  00000+0  64473-3 0  9996",
        "tle_line2": "2 66694  97.4419  67.0593 0001524 268.4852  91.6207 15.17538727  3446"
      },
      "geometry": {
        "type": "Point",
        "coordinates": [
          72.15469396104926,
          -32.85373227234544
        ]
      }
    },
    {
      "type": "Feature",
      "properties": {
        "norad_id": 66695,
        "name": "IRIDE FM1",
        "group": "last-30-days",
        "lat": 21.24993963886102,
        "lon": 64.41746961743739,
        "alt_km": 511.64712401898305,
        "timestamp": "2025-12-21T16:47:53.449004+00:00",
        "meta_object_name": "IRIDE FM1",
        "meta_object_id": "2025-276AF",
        "meta_epoch": "2025-12-21T11:57:31.040352",
        "meta_mean_motion": 15.18226317,
        "meta_eccentricity": 0.0001239,
        "meta_inclination": 97.4409,
        "meta_ra_of_asc_node": 67.1324,
        "meta_arg_of_pericenter": 148.1317,
        "meta_mean_anomaly": 211.9992,
        "meta_ephemeris_type": 0,
        "meta_classification_type": "U",
        "meta_norad_cat_id": 66695,
        "meta_element_set_no": 999,
        "meta_rev_at_epoch": 345,
        "meta_bstar": 0.00045435,
        "meta_mean_motion_dot": 9.236e-05,
        "meta_mean_motion_ddot": 0,
        "tle_line1": "1 66695U 25276AF  25355.49827593  .00009236  00000+0  45435-3 0  9994",
        "tle_line2": "2 66695  97.4409  67.1324 0001239 148.1317 211.9992 15.18226317  3451"
      },
      "geometry": {
        "type": "Point",
        "coordinates": [
          64.41746961743739,
          21.24993963886102
        ]
      }
    }
  ]
}